SHIJIAN-20 (SJ-20)      
1 44910U 19097A   26196.85711492  .00000123  00000+0  00000+0 0  9999
2 44910   4.9898  74.7110 0015371  57.5331 154.7946  1.00269465 23980
TJS-5                   
1 44978U 20002A   26197.09281006 -.00000353  00000+0  00000+0 0  9997
2 44978   0.0665  75.6437 0007705 339.6457  19.5478  1.00270391 23999
GSAT-30                 
1 45026U 20005A   26196.35955691 -.00000174  00000+0  00000+0 0  9992
2 45026   0.0481  91.8619 0003256   4.1984  49.5758  1.00270719 23794
EUTELSAT KONNECT        
1 45027U 20005B   26197.55636398  .00000038  00000+0  00000+0 0  9994
2 45027   0.0689  93.4454 0001824 148.8611 259.5644  1.00268662 24637
JCSAT-17                
1 45245U 20013A   26197.39157068 -.00000323  00000+0  00000+0 0  9997
2 45245   5.3923 357.1465 0003107 127.1274  86.9282  1.00271951 23523
GEO-KOMPSAT-2B          
1 45246U 20013B   26197.36663051  .00000000  00000+0  00000+0 0  9990
2 45246   0.0193 243.5467 0000644 352.7227 318.1708  1.00265681 23573
BEIDOU-3 G2             
1 45344U 20017A   26197.76372832 -.00000151  00000+0  00000+0 0  9999
2 45344   2.9229  47.8283 0002098  61.0937 180.6172  1.00269158 23555
AEHF-6 (USA 298)        
1 45465U 20022B   26197.58233654 -.00000307  00000+0  00000+0 0  9990
2 45465   2.4851 301.5346 0042002  15.4120 324.8701  1.00270824 23306
BEIDOU-3 G3             
1 45807U 20040A   26197.60308485 -.00000365  00000+0  00000+0 0  9992
2 45807   2.5176  67.4825 0002212 308.1542 246.3898  1.00275786 22368
APSTAR-6D               
1 45863U 20045A   26197.74930001 -.00000325  00000+0  00000+0 0  9995
2 45863   0.0412  91.2656 0004497 354.6762 252.4107  1.00298537 22157
KOREASAT 116            
1 45920U 20048A   26197.57807029 -.00000372  00000+0  00000+0 0  9998
2 45920   0.0251 299.7141 0000999 206.3753 112.5779  1.00267808 21935
EXPRESS 103             
1 45985U 20053A   26197.63358613 -.00000291  00000+0  00000+0 0  9992
2 45985   0.0309 270.8499 0000605 184.9322 163.2646  1.00271386 21946
EXPRESS 80              
1 45986U 20053B   26196.96161656 -.00000147  00000+0  00000+0 0  9997
2 45986   0.0188  43.8365 0001827 189.9065 126.2197  1.00276093 21926
BSAT-4B                 
1 46112U 20056A   26197.61030199 -.00000361  00000+0  00000+0 0  9990
2 46112   0.0411 146.0409 0004315 342.4803 135.4494  1.00271554 21685
MEV-2                   
1 46113U 20056B   26197.55489065 -.00000022  00000+0  00000+0 0  9998
2 46113   0.0555 253.3667 0000365 350.4485 249.3254  1.00272039 80895
GALAXY 30 (G-30)        
1 46114U 20056C   26197.60157663  .00000000  00000+0  00000+0 0  9996
2 46114   0.0214  56.5076 0002190  60.5101 268.9915  1.00270669 21586
GAOFEN-13 01            
1 46610U 20071A   26197.57850362 -.00000373  00000+0  00000+0 0  9990
2 46610   0.4721  86.1095 0045213 120.5986  54.1110  1.00264989 21215
TIANTONG-1 2            
1 46916U 20082A   26197.72238503 -.00000366  00000+0  00000+0 0  9997
2 46916   0.7564 331.9629 0001229 127.7602 219.8208  1.00272904 20942
LUCAS (JDRS-1)          
1 47202U 20089A   26197.66211823 -.00000246  00000+0  00000+0 0  9999
2 47202   0.0716 268.4362 0001636 179.4106 175.8003  1.00269867 20719
SXM-7                   
1 47240U 20096A   26197.11047833 -.00000216  00000+0  00000+0 0  9994
2 47240   0.0264  97.1091 0003528  25.9654 125.4849  1.00270266  7731
CMS-01                  
1 47256U 20099A   26197.62274028 -.00000175  00000+0  00000+0 0  9992
2 47256   0.0786  90.8005 0003429 175.4479 335.3757  1.00270779 20495
TURKSAT 5A              
1 47306U 21001A   26195.92092921  .00000145  00000+0  00000+0 0  9999
2 47306   0.0186  72.0805 0000214 188.2412  34.9010  1.00271052 20245
TIANTONG-1 3            
1 47321U 21003A   26197.57113693 -.00000163  00000+0  00000+0 0  9992
2 47321   1.7350 341.1505 0003033 143.5256  96.8570  1.00270026 20251
TJS-6                   
1 47613U 21010A   26197.59039657  .00000032  00000+0  00000+0 0  9997
2 47613   0.1768 261.5323 0003064 241.3757 182.5228  1.00272929 20102
SBIRS GEO-5 (USA 315)   
1 48618U 21042A   26197.64660098 -.00000275  00000+0  00000+0 0  9993
2 48618   5.0670 329.3499 0001482 152.4139 139.2883  1.00270715 19069
FENGYUN 4B              
1 48808U 21047A   26197.73570447 -.00000340  00000+0  00000+0 0  9990
2 48808   0.2242  79.9582 0006739 270.7259 313.2518  1.00274986 18860
SXM-8                   
1 48838U 21049A   26197.53816390 -.00000216  00000+0  00000+0 0  9995
2 48838   0.0185  48.9500 0005534 343.0497  10.9528  1.00270255 18871
TIANLIAN 1-05           
1 49011U 21063A   26197.34453042  .00000097  00000+0  00000+0 0  9991
2 49011   1.6672  80.4535 0001020  89.4915 265.1112  1.00272603 18360
STAR ONE D2             
1 49055U 21069A   26196.54301127  .00000000  00000+0  00000+0 0  9996
2 49055   0.0117  29.9249 0002582 103.5107 285.3561  1.00267571 18225
EUTELSAT QUANTUM        
1 49056U 21069B   26197.56451068  .00000115  00000+0  00000+0 0  9997
2 49056   0.0090   9.9410 0002062  99.3779  75.9763  1.00271984 18224
ZHONGXING-2E            
1 49062U 21071A   26197.65944478  .00000000  00000+0  00000+0 0  9992
2 49062   0.0185 241.9889 0001310 261.9626 126.0131  1.00267487 18339
TJS-7                   
1 49115U 21077A   26197.77468080 -.00000134  00000+0  00000+0 0  9999
2 49115   0.2803 263.8032 0002942 114.3488  95.8069  1.00273513  9845
