OBJECT_NAME,OBJECT_ID,EPOCH,MEAN_MOTION,ECCENTRICITY,INCLINATION,RA_OF_ASC_NODE,ARG_OF_PERICENTER,MEAN_ANOMALY,EPHEMERIS_TYPE,CLASSIFICATION_TYPE,NORAD_CAT_ID,ELEMENT_SET_NO,REV_AT_EPOCH,BSTAR,MEAN_MOTION_DOT,MEAN_MOTION_DDOT
SHIJIAN-20 (SJ-20),2019-097A,2026-07-15T20:34:14.729088,1.00269465,.0015371,4.9898,74.7110,57.5331,154.7946,0,U,44910,999,2398,0,.123E-5,0
TJS-5,2020-002A,2026-07-16T02:13:38.789184,1.00270391,.0007705,0.0665,75.6437,339.6457,19.5478,0,U,44978,999,2399,0,-.353E-5,0
GSAT-30,2020-005A,2026-07-15T08:37:45.717024,1.00270719,.00032563,0.0481,91.8619,4.1984,49.5758,0,U,45026,999,2379,0,-.174E-5,0
EUTELSAT KONNECT,2020-005B,2026-07-16T13:21:09.847872,1.00268662,.00018246,0.0689,93.4454,148.8611,259.5644,0,U,45027,999,2463,0,.38E-6,0
JCSAT-17,2020-013A,2026-07-16T09:23:51.706752,1.00271951,.00031071,5.3923,357.1465,127.1274,86.9282,0,U,45245,999,2352,0,-.323E-5,0
GEO-KOMPSAT-2B,2020-013B,2026-07-16T08:47:56.876064,1.00265681,.0000644,0.0193,243.5467,352.7227,318.1708,0,U,45246,999,2357,0,0,0
BEIDOU-3 G2,2020-017A,2026-07-16T18:19:46.126848,1.00269158,.0002098,2.9229,47.8283,61.0937,180.6172,0,U,45344,999,2355,0,-.151E-5,0
AEHF-6 (USA 298),2020-022B,2026-07-16T13:58:33.877056,1.00270824,.00420025,2.4851,301.5346,15.4120,324.8701,0,U,45465,999,2330,0,-.307E-5,0
BEIDOU-3 G3,2020-040A,2026-07-16T14:28:26.531040,1.00275786,.00022127,2.5176,67.4825,308.1542,246.3898,0,U,45807,999,2236,0,-.365E-5,0
APSTAR-6D,2020-045A,2026-07-16T17:58:59.520864,1.00298537,.0004497,0.0412,91.2656,354.6762,252.4107,0,U,45863,999,2215,0,-.325E-5,0
KOREASAT 116,2020-048A,2026-07-16T13:52:25.273056,1.00267808,.0000999,0.0251,299.7141,206.3753,112.5779,0,U,45920,999,2193,0,-.372E-5,0
EXPRESS 103,2020-053A,2026-07-16T15:12:21.841632,1.00271386,.00006054,0.0309,270.8499,184.9322,163.2646,0,U,45985,999,2194,0,-.291E-5,0
EXPRESS 80,2020-053B,2026-07-15T23:04:43.670784,1.00276093,.00018277,0.0188,43.8365,189.9065,126.2197,0,U,45986,999,2192,0,-.147E-5,0
BSAT-4B,2020-056A,2026-07-16T14:38:50.091936,1.00271554,.00043159,0.0411,146.0409,342.4803,135.4494,0,U,46112,999,2168,0,-.361E-5,0
MEV-2,2020-056B,2026-07-16T13:19:02.552160,1.00272039,.0000365,0.0555,253.3667,350.4485,249.3254,0,U,46113,999,8089,0,-.22E-6,0
GALAXY 30 (G-30),2020-056C,2026-07-16T14:26:16.220832,1.00270669,.00021904,0.0214,56.5076,60.5101,268.9915,0,U,46114,999,2158,0,0,0
GAOFEN-13 01,2020-071A,2026-07-16T13:53:02.712768,1.00264989,.00452135,0.4721,86.1095,120.5986,54.1110,0,U,46610,999,2121,0,-.373E-5,0
TIANTONG-1 2,2020-082A,2026-07-16T17:20:14.066592,1.00272904,.0001229,0.7564,331.9629,127.7602,219.8208,0,U,46916,999,2094,0,-.366E-5,0
LUCAS (JDRS-1),2020-089A,2026-07-16T15:53:27.015072,1.00269867,.00016365,0.0716,268.4362,179.4106,175.8003,0,U,47202,999,2071,0,-.246E-5,0
SXM-7,2020-096A,2026-07-16T02:39:05.327712,1.00270266,.00035283,0.0264,97.1091,25.9654,125.4849,0,U,47240,999,773,0,-.216E-5,0
CMS-01,2020-099A,2026-07-16T14:56:44.760192,1.00270779,.00034299,0.0786,90.8005,175.4479,335.3757,0,U,47256,999,2049,0,-.175E-5,0
TURKSAT 5A,2021-001A,2026-07-14T22:06:08.283744,1.00271052,.0000214,0.0186,72.0805,188.2412,34.9010,0,U,47306,999,2024,0,.145E-5,0
TIANTONG-1 3,2021-003A,2026-07-16T13:42:26.230752,1.00270026,.00030332,1.7350,341.1505,143.5256,96.8570,0,U,47321,999,2025,0,-.163E-5,0
TJS-6,2021-010A,2026-07-16T14:10:10.263648,1.00272929,.00030642,0.1768,261.5323,241.3757,182.5228,0,U,47613,999,2010,0,.32E-6,0
SBIRS GEO-5 (USA 315),2021-042A,2026-07-16T15:31:06.324672,1.00270715,.00014823,5.0670,329.3499,152.4139,139.2883,0,U,48618,999,1906,0,-.275E-5,0
FENGYUN 4B,2021-047A,2026-07-16T17:39:24.866208,1.00274986,.0006739,0.2242,79.9582,270.7259,313.2518,0,U,48808,999,1886,0,-.34E-5,0
SXM-8,2021-049A,2026-07-16T12:54:57.360960,1.00270255,.0005534,0.0185,48.9500,343.0497,10.9528,0,U,48838,999,1887,0,-.216E-5,0
TIANLIAN 1-05,2021-063A,2026-07-16T08:16:07.428288,1.00272603,.00010206,1.6672,80.4535,89.4915,265.1112,0,U,49011,999,1836,0,.97E-6,0
STAR ONE D2,2021-069A,2026-07-15T13:01:56.173728,1.00267571,.00025829,0.0117,29.9249,103.5107,285.3561,0,U,49055,999,1822,0,0,0
EUTELSAT QUANTUM,2021-069B,2026-07-16T13:32:53.722752,1.00271984,.00020625,0.0090,9.9410,99.3779,75.9763,0,U,49056,999,1822,0,.115E-5,0
ZHONGXING-2E,2021-071A,2026-07-16T15:49:36.028992,1.00267487,.00013109,0.0185,241.9889,261.9626,126.0131,0,U,49062,999,1833,0,0,0
TJS-7,2021-077A,2026-07-16T18:35:32.421120,1.00273513,.0002942,0.2803,263.8032,114.3488,95.8069,0,U,49115,999,984,0,-.134E-5,0
